*******************************************************************************
Ephemeris / WWW_USER Mon Jul 15 19:23:16 2024 Pasadena, USA      / Horizons    
*******************************************************************************
Target body name: (2018 RB1)                      {source: JPL#5}
Center body name: Earth (399)                     {source: DE441}
Center-site name: Gemini South Obs., Cerro Pachon
*******************************************************************************
Start time      : A.D. 2018-Dec-28 23:56:00.0000 UT      
Stop  time      : A.D. 2018-Dec-29 09:33:00.0000 UT      
Step-size       : 1 minutes
*******************************************************************************
Target pole/equ : undefined
Target radii    : undefined                                                    
Center geodetic : 289.2634, -30.2406227, 2.71233  {E-lon(deg),Lat(deg),Alt(km)}
Center cylindric: 289.2634,5517.21435,-3194.81213 {E-lon(deg),Dxy(km),Dz(km)}
Center pole/equ : ITRF93                          {East-longitude positive}
Center radii    : 6378.137, 6378.137, 6356.752 km {Equator_a, b, pole_c}       
Target primary  : Sun
Vis. interferer : MOON (R_eq= 1737.400) km        {source: DE441}
Rel. light bend : Sun                             {source: DE441}
Rel. lght bnd GM: 1.3271E+11 km^3/s^2                                          
Small-body perts: Yes                             {source: SB441-N16}
Atmos refraction: NO (AIRLESS)
RA format       : HMS
Time format     : CAL 
Calendar mode   : Mixed Julian/Gregorian
RTS-only print  : NO       
EOP file        : eop.240715.p241008                                           
EOP coverage    : DATA-BASED 1962-JAN-20 TO 2024-JUL-15. PREDICTS-> 2024-OCT-07
Units conversion: 1 au= 149597870.700 km, c= 299792.458 km/s, 1 day= 86400.0 s 
Table cut-offs 1: Elevation (-90.0deg=NO ),Airmass (>38.000=NO), Daylight (YES)
Table cut-offs 2: Solar elongation (  0.0,180.0=NO ),Local Hour Angle( 0.0=NO )
Table cut-offs 3: RA/DEC angular rate (     0.0=NO )                           
*******************************************************************************
Initial IAU76/J2000 heliocentric ecliptic osculating elements (au, days, deg.):
  EPOCH=  2458368.5 ! 2018-Sep-07.00 (TDB)         Residual RMS= .299          
   EC= .2816093255492492   QR= .7991213126369837   TP= 2458438.7854507864      
   OM= 166.9631715555783   W=  267.8210074013559   IN= 5.127543488636634       
  Equivalent ICRF heliocentric cartesian coordinates (au, au/d):
   X= 9.883258176612897E-01  Y=-2.654573099408967E-01  Z=-1.095366816313374E-01
  VX= 1.112505236628486E-04 VY= 1.667631342697191E-02 VZ= 5.559084906068471E-03
Asteroid physical parameters (km, seconds, rotational period in hours):        
   GM= n.a.                RAD= n.a.               ROTPER= n.a.                
   H= 27.9                 G= .150                 B-V= n.a.                   
                           ALBEDO= n.a.            STYP= n.a.                  
*******************************************************************************
 Date__(UT)__HR:MN     R.A._________(ICRF)_________DEC
******************************************************
$$SOE
 2018-Dec-28 23:56 C   13 56 38.762151 -15 58 50.75119
 2018-Dec-28 23:57 C   13 56 38.886996 -15 58 51.03525
 2018-Dec-28 23:58 C   13 56 39.011841 -15 58 51.31937
 2018-Dec-28 23:59 C   13 56 39.136688 -15 58 51.60355
 2018-Dec-29 00:00 C   13 56 39.261535 -15 58 51.88779
 2018-Dec-29 00:01 C   13 56 39.386382 -15 58 52.17210
 2018-Dec-29 00:02 C   13 56 39.511230 -15 58 52.45646
 2018-Dec-29 00:03 C   13 56 39.636079 -15 58 52.74089
 2018-Dec-29 00:04 C   13 56 39.760928 -15 58 53.02537
 2018-Dec-29 00:05 C   13 56 39.885777 -15 58 53.30992
 2018-Dec-29 00:06 C   13 56 40.010627 -15 58 53.59453
 2018-Dec-29 00:07 C   13 56 40.135477 -15 58 53.87920
 2018-Dec-29 00:08 C   13 56 40.260326 -15 58 54.16393
 2018-Dec-29 00:09 C   13 56 40.385176 -15 58 54.44872
 2018-Dec-29 00:10 C   13 56 40.510026 -15 58 54.73357
 2018-Dec-29 00:11 C   13 56 40.634876 -15 58 55.01848
 2018-Dec-29 00:12 C   13 56 40.759725 -15 58 55.30346
 2018-Dec-29 00:13 C   13 56 40.884575 -15 58 55.58849
 2018-Dec-29 00:14 C   13 56 41.009424 -15 58 55.87359
 2018-Dec-29 00:15 N   13 56 41.134272 -15 58 56.15875
 2018-Dec-29 00:16 N   13 56 41.259120 -15 58 56.44396
 2018-Dec-29 00:17 N   13 56 41.383968 -15 58 56.72924
 2018-Dec-29 00:18 N   13 56 41.508815 -15 58 57.01458
 2018-Dec-29 00:19 N   13 56 41.633661 -15 58 57.29998
 2018-Dec-29 00:20 N   13 56 41.758507 -15 58 57.58544
 2018-Dec-29 00:21 N   13 56 41.883352 -15 58 57.87097
 2018-Dec-29 00:22 N   13 56 42.008196 -15 58 58.15655
 2018-Dec-29 00:23 N   13 56 42.133039 -15 58 58.44219
 2018-Dec-29 00:24 N   13 56 42.257881 -15 58 58.72790
 2018-Dec-29 00:25 N   13 56 42.382722 -15 58 59.01366
 2018-Dec-29 00:26 N   13 56 42.507562 -15 58 59.29949
 2018-Dec-29 00:27 N   13 56 42.632400 -15 58 59.58538
 2018-Dec-29 00:28 N   13 56 42.757237 -15 58 59.87133
 2018-Dec-29 00:29 N   13 56 42.882073 -15 59 00.15734
 2018-Dec-29 00:30 N   13 56 43.006908 -15 59 00.44340
 2018-Dec-29 00:31 N   13 56 43.131741 -15 59 00.72954
 2018-Dec-29 00:32 N   13 56 43.256572 -15 59 01.01573
 2018-Dec-29 00:33 N   13 56 43.381402 -15 59 01.30198
 2018-Dec-29 00:34 N   13 56 43.506230 -15 59 01.58829
 2018-Dec-29 00:35 N   13 56 43.631057 -15 59 01.87466
 2018-Dec-29 00:36 N   13 56 43.755881 -15 59 02.16110
 2018-Dec-29 00:37 N   13 56 43.880704 -15 59 02.44759
 2018-Dec-29 00:38 N   13 56 44.005524 -15 59 02.73415
 2018-Dec-29 00:39 N   13 56 44.130343 -15 59 03.02076
 2018-Dec-29 00:40 N   13 56 44.255159 -15 59 03.30744
 2018-Dec-29 00:41 N   13 56 44.379973 -15 59 03.59417
 2018-Dec-29 00:42 N   13 56 44.504785 -15 59 03.88097
 2018-Dec-29 00:43 N   13 56 44.629595 -15 59 04.16783
 2018-Dec-29 00:44 N   13 56 44.754402 -15 59 04.45474
 2018-Dec-29 00:45 N   13 56 44.879207 -15 59 04.74172
 2018-Dec-29 00:46 N   13 56 45.004009 -15 59 05.02876
 2018-Dec-29 00:47 N   13 56 45.128809 -15 59 05.31586
 2018-Dec-29 00:48 A   13 56 45.253606 -15 59 05.60301
 2018-Dec-29 00:49 A   13 56 45.378400 -15 59 05.89023
 2018-Dec-29 00:50 A   13 56 45.503191 -15 59 06.17751
 2018-Dec-29 00:51 A   13 56 45.627980 -15 59 06.46485
 2018-Dec-29 00:52 A   13 56 45.752765 -15 59 06.75225
 2018-Dec-29 00:53 A   13 56 45.877548 -15 59 07.03970
 2018-Dec-29 00:54 A   13 56 46.002327 -15 59 07.32722
 2018-Dec-29 00:55 A   13 56 46.127104 -15 59 07.61480
 2018-Dec-29 00:56 A   13 56 46.251877 -15 59 07.90244
 2018-Dec-29 00:57 A   13 56 46.376647 -15 59 08.19013
 2018-Dec-29 00:58 A   13 56 46.501413 -15 59 08.47789
 2018-Dec-29 00:59 A   13 56 46.626176 -15 59 08.76571
 2018-Dec-29 01:00 A   13 56 46.750935 -15 59 09.05358
 2018-Dec-29 01:01 A   13 56 46.875691 -15 59 09.34152
 2018-Dec-29 01:02 A   13 56 47.000444 -15 59 09.62951
 2018-Dec-29 01:03 A   13 56 47.125192 -15 59 09.91756
 2018-Dec-29 01:04 A   13 56 47.249937 -15 59 10.20568
 2018-Dec-29 01:05 A   13 56 47.374678 -15 59 10.49385
 2018-Dec-29 01:06 A   13 56 47.499415 -15 59 10.78208
 2018-Dec-29 01:07 A   13 56 47.624148 -15 59 11.07037
 2018-Dec-29 01:08 A   13 56 47.748877 -15 59 11.35872
 2018-Dec-29 01:09 A   13 56 47.873602 -15 59 11.64713
 2018-Dec-29 01:10 A   13 56 47.998323 -15 59 11.93560
 2018-Dec-29 01:11 A   13 56 48.123040 -15 59 12.22412
 2018-Dec-29 01:12 A   13 56 48.247752 -15 59 12.51271
 2018-Dec-29 01:13 A   13 56 48.372460 -15 59 12.80135
 2018-Dec-29 01:14 A   13 56 48.497163 -15 59 13.09005
 2018-Dec-29 01:15 A   13 56 48.621862 -15 59 13.37881
 2018-Dec-29 01:16 A   13 56 48.746557 -15 59 13.66763
 2018-Dec-29 01:17 A   13 56 48.871246 -15 59 13.95651
 2018-Dec-29 01:18 A   13 56 48.995931 -15 59 14.24545
 2018-Dec-29 01:19 A   13 56 49.120611 -15 59 14.53444
 2018-Dec-29 01:20 A   13 56 49.245287 -15 59 14.82349
 2018-Dec-29 01:21 A   13 56 49.369957 -15 59 15.11260
 2018-Dec-29 01:22 A   13 56 49.494623 -15 59 15.40177
 2018-Dec-29 01:23 A   13 56 49.619283 -15 59 15.69099
 2018-Dec-29 01:24     13 56 49.743938 -15 59 15.98028
 2018-Dec-29 01:25     13 56 49.868588 -15 59 16.26962
 2018-Dec-29 01:26     13 56 49.993233 -15 59 16.55902
 2018-Dec-29 01:27     13 56 50.117873 -15 59 16.84847
 2018-Dec-29 01:28     13 56 50.242507 -15 59 17.13799
 2018-Dec-29 01:29     13 56 50.367136 -15 59 17.42756
 2018-Dec-29 01:30     13 56 50.491759 -15 59 17.71719
 2018-Dec-29 01:31     13 56 50.616377 -15 59 18.00687
 2018-Dec-29 01:32     13 56 50.740989 -15 59 18.29661
 2018-Dec-29 01:33     13 56 50.865595 -15 59 18.58641
 2018-Dec-29 01:34     13 56 50.990196 -15 59 18.87627
 2018-Dec-29 01:35     13 56 51.114790 -15 59 19.16618
 2018-Dec-29 01:36     13 56 51.239379 -15 59 19.45615
 2018-Dec-29 01:37     13 56 51.363962 -15 59 19.74618
 2018-Dec-29 01:38     13 56 51.488539 -15 59 20.03626
 2018-Dec-29 01:39     13 56 51.613110 -15 59 20.32640
 2018-Dec-29 01:40     13 56 51.737674 -15 59 20.61659
 2018-Dec-29 01:41     13 56 51.862232 -15 59 20.90684
 2018-Dec-29 01:42     13 56 51.986784 -15 59 21.19715
 2018-Dec-29 01:43     13 56 52.111330 -15 59 21.48751
 2018-Dec-29 01:44     13 56 52.235869 -15 59 21.77793
 2018-Dec-29 01:45     13 56 52.360402 -15 59 22.06841
 2018-Dec-29 01:46     13 56 52.484929 -15 59 22.35894
 2018-Dec-29 01:47     13 56 52.609448 -15 59 22.64952
 2018-Dec-29 01:48     13 56 52.733961 -15 59 22.94016
 2018-Dec-29 01:49     13 56 52.858467 -15 59 23.23086
 2018-Dec-29 01:50     13 56 52.982967 -15 59 23.52161
 2018-Dec-29 01:51     13 56 53.107459 -15 59 23.81242
 2018-Dec-29 01:52     13 56 53.231945 -15 59 24.10328
 2018-Dec-29 01:53     13 56 53.356424 -15 59 24.39419
 2018-Dec-29 01:54     13 56 53.480895 -15 59 24.68516
 2018-Dec-29 01:55     13 56 53.605360 -15 59 24.97619
 2018-Dec-29 01:56     13 56 53.729817 -15 59 25.26727
 2018-Dec-29 01:57     13 56 53.854267 -15 59 25.55840
 2018-Dec-29 01:58     13 56 53.978710 -15 59 25.84959
